[{"OBJECT_NAME":"STARLINK-3374","OBJECT_ID":"2022-005J","EPOCH":"2026-03-09T21:28:49.885248","MEAN_MOTION":15.08858562,"ECCENTRICITY":0.00013555,"INCLINATION":53.2171,"RA_OF_ASC_NODE":288.1695,"ARG_OF_PERICENTER":94.1755,"MEAN_ANOMALY":265.9393,"EPHEMERIS_TYPE":0,"CLASSIFICATION_TYPE":"U","NORAD_CAT_ID":51112,"ELEMENT_SET_NO":999,"REV_AT_EPOCH":22891,"BSTAR":0.00015547156,"MEAN_MOTION_DOT":2.188e-5,"MEAN_MOTION_DDOT":0},{"OBJECT_NAME":"DELTA 1 DEB","OBJECT_ID":"1978-026BX","EPOCH":"2026-03-09T21:34:36.806304","MEAN_MOTION":15.0275865,"ECCENTRICITY":0.00371244,"INCLINATION":98.0194,"RA_OF_ASC_NODE":65.5332,"ARG_OF_PERICENTER":51.7385,"MEAN_ANOMALY":308.7169,"EPHEMERIS_TYPE":0,"CLASSIFICATION_TYPE":"U","NORAD_CAT_ID":12230,"ELEMENT_SET_NO":999,"REV_AT_EPOCH":36609,"BSTAR":0.0014350783,"MEAN_MOTION_DOT":0.00019449,"MEAN_MOTION_DDOT":0}]
